ONEWEB-0208             
1 48243U 21031AK  26176.30455935  .00000256  00000+0  65691-3 0  9996
2 48243  87.8974 288.0877 0002148 109.9933 250.1428 13.14504269249377
ONEWEB-0200             
1 48244U 21031AL  26176.26808587 -.00000188  00000+0 -54057-3 0  9997
2 48244  87.8977 288.0824 0002069 102.0781 258.0581 13.14502967249291
ONEWEB-0217             
1 48245U 21031AM  26176.36005979  .00000047  00000+0  91336-4 0  9997
2 48245  87.8977 288.0684 0002155 110.3353 249.8009 13.14502082249256
ONEWEB-0211             
1 48767U 21045A   26176.55312962 -.00000021  00000+0 -87907-4 0  9998
2 48767  87.9004 257.4135 0002209 118.1992 241.9362 13.16197464245542
ONEWEB-0223             
1 48768U 21045B   26176.48351625 -.00000078  00000+0 -24033-3 0  9992
2 48768  87.9009 257.5383 0001896 112.0646 248.0686 13.15550448245499
ONEWEB-0230             
1 48769U 21045C   26176.45499598  .00000176  00000+0  43356-3 0  9998
2 48769  87.9000 257.5565 0002045  95.8218 264.3145 13.15548961245750
ONEWEB-0237             
1 48770U 21045D   26176.51995815  .00000227  00000+0  56795-3 0  9998
2 48770  87.9000 257.5455 0001812 105.1445 254.9886 13.15548353245480
ONEWEB-0235             
1 48771U 21045E   26176.49460891 -.00000059  00000+0 -19090-3 0  9999
2 48771  87.9007 257.5370 0001826 111.5373 248.5952 13.15549114245478
ONEWEB-0242             
1 48772U 21045F   26176.56432277 -.00000078  00000+0 -24052-3 0  9990
2 48772  87.9009 257.5199 0001795 101.0812 259.0521 13.15547777245525
ONEWEB-0241             
1 48773U 21045G   26176.47559183  .00000001  00000+0 -30846-4 0  9991
2 48773  87.9002 257.5553 0002081 112.4425 247.6926 13.15549944245427
ONEWEB-0243             
1 48774U 21045H   26176.50727836  .00000157  00000+0  38380-3 0  9999
2 48774  87.9000 257.5610 0001434 102.0045 258.1246 13.15549813245454
ONEWEB-0222             
1 48775U 21045J   26176.26246683 -.00000139  00000+0 -40290-3 0  9994
2 48775  87.9008 257.5783 0002002 106.8495 253.2855 13.15549155245469
ONEWEB-0244             
1 48776U 21045K   26176.51679104  .00000206  00000+0  51360-3 0  9994
2 48776  87.9016 257.5227 0001872 102.7069 257.4271 13.15549052246069
ONEWEB-0247             
1 48777U 21045L   26176.51362274  .00000184  00000+0  45365-3 0  9995
2 48777  87.9000 257.5543 0001333 118.5959 241.5306 13.15548265245505
ONEWEB-0245             
1 48778U 21045M   26176.28069424  .00000191  00000+0  47217-3 0  9997
2 48778  87.9014 257.5807 0001968 105.4655 254.6693 13.15547836245446
ONEWEB-0229             
1 48779U 21045N   26176.50410956  .00000167  00000+0  40868-3 0  9991
2 48779  87.9005 257.5340 0001923 100.2317 259.9031 13.15549875245504
ONEWEB-0228             
1 48780U 21045P   26176.46146800  .00000066  00000+0  14186-3 0  9994
2 48780  87.9017 257.5358 0001923 102.0065 258.1281 13.15547146245415
ONEWEB-0232             
1 48781U 21045Q   26176.51203062  .00000192  00000+0  47484-3 0  9992
2 48781  87.9014 257.5265 0002082 101.7674 258.3690 13.15546821245740
ONEWEB-0231             
1 48782U 21045R   26176.48984573 -.00000087  00000+0 -26408-3 0  9990
2 48782  87.9008 257.5437 0001938 107.2781 252.8562 13.15549567245437
ONEWEB-0234             
1 48783U 21045S   26176.45168245  .00000194  00000+0  48032-3 0  9992
2 48783  87.9008 257.5328 0002867 103.0307 257.1143 13.15550039245560
ONEWEB-0238             
1 48784U 21045T   26176.52801877  .00000113  00000+0  26557-3 0  9995
2 48784  87.9014 257.5126 0002440 102.1596 257.9808 13.15547989245477
ONEWEB-0240             
1 48785U 21045U   26176.47321454 -.00000049  00000+0 -16310-3 0  9994
2 48785  87.9012 257.5336 0002087 109.4352 250.7004 13.15548418245495
ONEWEB-0246             
1 48786U 21045V   26176.46766449  .00000073  00000+0  16059-3 0  9996
2 48786  87.9011 257.5388 0001879  99.8233 260.3109 13.15550652245362
ONEWEB-0210             
1 48787U 21045W   26176.51836401  .00000174  00000+0  42818-3 0  9993
2 48787  87.9008 257.5258 0001176 107.1872 252.9387 13.15547281245412
ONEWEB-0214             
1 48788U 21045X   26176.52708107  .00000196  00000+0  48737-3 0  9996
2 48788  87.9011 257.5209 0001746  92.7521 267.3809 13.15549941245386
ONEWEB-0221             
1 48789U 21045Y   26176.45816437  .00000155  00000+0  37757-3 0  9990
2 48789  87.9011 257.5432 0001945 105.4241 254.7104 13.15548976245461
ONEWEB-0213             
1 48790U 21045Z   26176.21889801  .00000154  00000+0  37378-3 0  9999
2 48790  87.9010 257.5941 0001797 106.1687 253.9641 13.15547590245495
ONEWEB-0212             
1 48791U 21045AA  26176.50013356  .00000039  00000+0  68240-4 0  9991
2 48791  87.9009 257.5325 0002064 100.3373 259.7990 13.15551331245529
ONEWEB-0227             
1 48792U 21045AB  26176.49935778 -.00000003  00000+0 -41873-4 0  9997
2 48792  87.9006 257.5332 0002046 103.1192 257.0167 13.15549213245472
ONEWEB-0226             
1 48793U 21045AC  26176.49300533 -.00000041  00000+0 -14312-3 0  9992
2 48793  87.9003 257.5390 0001757 103.0970 257.0356 13.15547144245443
ONEWEB-0224             
1 48794U 21045AD  26176.45657823  .00000143  00000+0  34538-3 0  9999
2 48794  87.9000 257.5798 0002707 115.3438 244.7973 13.15547723245366
ONEWEB-0233             
1 48795U 21045AE  26176.46119275  .00000122  00000+0  29113-3 0  9995
2 48795  87.9001 257.5865 0001935 109.0598 251.0742 13.15549259245385
ONEWEB-0190             
1 48796U 21045AF  26176.52471030  .00000146  00000+0  35475-3 0  9997
2 48796  87.9006 257.5360 0001606 118.5020 241.6272 13.15547981245463
ONEWEB-0236             
1 48797U 21045AG  26176.46608942  .00000035  00000+0  59780-4 0  9998
2 48797  87.8997 257.5569 0002185  99.5510 260.5868 13.15548931245342
ONEWEB-0248             
1 48798U 21045AH  26176.47876040 -.00000061  00000+0 -19622-3 0  9997
2 48798  87.9010 257.5389 0002004 114.7586 245.3753 13.15548404245500
ONEWEB-0225             
1 48799U 21045AJ  26176.50094515  .00000084  00000+0  18897-3 0  9997
2 48799  87.9002 257.5423 0001681 114.9053 245.2252 13.15549807245514
ONEWEB-0215             
1 48800U 21045AK  26176.47083521 -.00000020  00000+0 -86561-4 0  9997
2 48800  87.9012 257.5313 0001774 120.2320 239.8987 13.15547496245387
ONEWEB-0216             
1 48801U 21045AL  26176.48034630 -.00000036  00000+0 -13035-3 0  9998
2 48801  87.9008 257.5440 0002019  98.1659 261.9700 13.15549491245392
ONEWEB-0239             
1 48802U 21045AM  26176.48509680 -.00000068  00000+0 -21342-3 0  9996
2 48802  87.8997 257.5485 0002048 123.3717 236.7609 13.15549656245432
ONEWEB-0249             
1 48967U 21060A   26176.41254889  .00000069  00000+0  14772-3 0  9994
2 48967  87.9088 227.1448 0002133 100.1703 259.9668 13.16595831240693
ONEWEB-0250             
1 48968U 21060B   26176.53352114  .00000034  00000+0  47105-4 0  9997
2 48968  87.9091 224.8501 0003039 106.0002 254.1470 13.25834480241320
ONEWEB-0252             
1 48970U 21060D   26176.51943373  .00000140  00000+0  33202-3 0  9991
2 48970  87.9095 227.1159 0001838  93.0410 267.0932 13.16594600240754
ONEWEB-0253             
1 48971U 21060E   26176.50835220  .00000106  00000+0  24322-3 0  9997
2 48971  87.9091 227.1234 0002137  99.7354 260.4018 13.16594145240686
ONEWEB-0254             
1 48972U 21060F   26176.51784707  .00000103  00000+0  23603-3 0  9990
2 48972  87.9095 227.1192 0002068 106.0308 254.1051 13.16595186240681
ONEWEB-0255             
1 48973U 21060G   26176.55584453 -.00000040  00000+0 -13783-3 0  9991
2 48973  87.9090 227.1184 0002003 101.8291 258.3065 13.16595270240765
ONEWEB-0256             
1 48974U 21060H   26176.50597311  .00000146  00000+0  34840-3 0  9996
2 48974  87.9085 227.1317 0002012  93.2947 266.8415 13.16593930240720
ONEWEB-0257             
1 48975U 21060J   26176.53842450  .00000083  00000+0  18282-3 0  9999
2 48975  87.9092 227.1131 0001918  98.2704 261.8644 13.16595477240685
ONEWEB-0258             
1 48976U 21060K   26176.54001171 -.00000008  00000+0 -54660-4 0  9998
2 48976  87.9093 227.1247 0002109  97.9530 262.1841 13.16594909240694
ONEWEB-0259             
1 48977U 21060L   26176.53367745  .00000120  00000+0  28046-3 0  9991
2 48977  87.9092 227.1249 0002112 101.3520 258.7848 13.16595969240728
ONEWEB-0260             
1 48978U 21060M   26176.52496722  .00000214  00000+0  52590-3 0  9994
2 48978  87.9089 227.1280 0001833  86.6560 273.4780 13.16595285240706
ONEWEB-0261             
1 48979U 21060N   26176.41888408  .00000049  00000+0  94332-4 0  9996
2 48979  87.9085 227.1492 0001769 102.4812 257.6517 13.16592834240746
ONEWEB-0262             
1 48980U 21060P   26176.55109206 -.00000023  00000+0 -92760-4 0  9992
2 48980  87.9091 227.1093 0002177 103.5910 256.5464 13.16595843240727
ONEWEB-0263             
1 48981U 21060Q   26176.50675972  .00000097  00000+0  22043-3 0  9991
2 48981  87.9091 227.1296 0001860 105.7665 254.3671 13.16595064240688
ONEWEB-0264             
1 48982U 21060R   26176.54396674 -.00000048  00000+0 -15843-3 0  9993
2 48982  87.9091 227.1251 0001829  95.6128 264.5212 13.16595691240697
ONEWEB-0266             
1 48984U 21060T   26176.41335263  .00000097  00000+0  22058-3 0  9996
2 48984  87.9090 227.1417 0002140  96.3493 263.7882 13.16595246240669
ONEWEB-0267             
1 48985U 21060U   26176.50042991  .00000054  00000+0  10774-3 0  9995
2 48985  87.9090 227.1211 0001835 100.1731 259.9607 13.16595356240687
ONEWEB-0268             
1 48986U 21060V   26176.54474695 -.00000002  00000+0 -37800-4 0  9995
2 48986  87.9093 227.1221 0001998  93.1486 266.9873 13.16593015240953
ONEWEB-0269             
1 48987U 21060W   26176.52576053  .00000094  00000+0  21306-3 0  9997
2 48987  87.9086 227.1274 0002109  91.1504 268.9869 13.16595240240722
ONEWEB-0270             
1 48988U 21060X   26176.54317855 -.00000009  00000+0 -57492-4 0  9997
2 48988  87.9094 227.1241 0002005 107.2873 252.8478 13.16595436240768
